NORAD_CAT_ID,OBJECT_NAME,OBJECT_TYPE,EPOCH,MEAN_MOTION,ECCENTRICITY,INCLINATION,RA_OF_ASC_NODE,ARG_OF_PERICENTER,MEAN_ANOMALY,BSTAR,MEAN_MOTION_DOT,MEAN_MOTION_DDOT,TLE_LINE0,TLE_LINE1,TLE_LINE2,SEMIMAJOR_AXIS,PERIOD,APOGEE,PERIGEE,DECAYED
53700.0,STARLINK-4725,PAYLOAD,2023-02-23 11:16:37,15.08824319,0.0001033,53.2171,187.7172,79.1117,280.9992,-0.00013003,-2.356e-05,0.0,0 STARLINK-4725,1 53700U 22107A   23054.46987363 -.00002356  00000-0 -13003-3 0  9995,2 53700  53.2171 187.7172 0001033  79.1117 280.9992 15.08824319 27258,6917.928,95.439,540.508,539.079,0.0
53700.0,STARLINK-4725,PAYLOAD,2023-02-23 19:13:31,15.08838514,0.000107,53.2173,186.2297,92.4887,267.6227,-1.2685e-05,-4.9e-06,0.0,0 STARLINK-4725,1 53700U 22107A   23054.80106173 -.00000490  00000-0 -12685-4 0  9998,2 53700  53.2173 186.2297 0001070  92.4887 267.6227 15.08838514 26552,6917.885,95.438,540.49,539.01,0.0
53700.0,STARLINK-4725,PAYLOAD,2023-02-24 12:42:45,15.0884309,0.0001376,53.2173,182.9594,79.9148,280.2,6.2911e-05,7.14e-06,0.0,0 STARLINK-4725,1 53700U 22107A   23055.52969660  .00000714  00000-0  62911-4 0  9990,2 53700  53.2173 182.9594 0001376  79.9148 280.2000 15.08843090 27415,6917.871,95.437,540.688,538.784,0.0
53700.0,STARLINK-4725,PAYLOAD,2023-02-24 14:18:08,15.08846314,0.0001323,53.2174,182.6619,84.3666,275.7477,4.6674e-05,4.55e-06,0.0,0 STARLINK-4725,1 53700U 22107A   23055.59593492  .00000455  00000-0  46674-4 0  9993,2 53700  53.2174 182.6619 0001323  84.3666 275.7477 15.08846314 26674,6917.861,95.437,540.641,538.811,0.0
53700.0,STARLINK-4725,PAYLOAD,2023-02-24 17:28:54,15.08853846,0.0001179,53.2168,182.0666,77.6811,282.4313,8.3077e-05,1.035e-05,0.0,0 STARLINK-4725,1 53700U 22107A   23055.72840816  .00001035  00000-0  83077-4 0  9996,2 53700  53.2168 182.0666 0001179  77.6811 282.4313 15.08853846 26693,6917.838,95.437,540.519,538.887,0.0
53700.0,STARLINK-4725,PAYLOAD,2023-02-25 01:25:52,15.08823272,0.0002496,53.2193,180.5812,81.3208,278.8067,3.9435e-05,3.39e-06,0.0,0 STARLINK-4725,1 53700U 22107A   23056.05963191  .00000339  00000-0  39435-4 0  9990,2 53700  53.2193 180.5812 0002496  81.3208 278.8067 15.08823272 26743,6917.932,95.439,541.523,538.07,0.0
53700.0,STARLINK-4725,PAYLOAD,2023-02-25 12:33:34,15.08820866,0.0001483,53.218,178.4997,80.0794,280.0365,4.0552e-07,-2.81e-06,0.0,0 STARLINK-4725,1 53700U 22107A   23056.52331527 -.00000281  00000-0  40552-6 0  9995,2 53700  53.2180 178.4997 0001483  80.0794 280.0365 15.08820866 27563,6917.939,95.439,540.83,538.778,0.0
53700.0,STARLINK-4725,PAYLOAD,2023-02-25 17:19:43,15.08832034,0.0001293,53.2177,177.6061,85.211,274.903,-4.4396e-05,-9.94e-06,0.0,0 STARLINK-4725,1 53700U 22107A   23056.72203084 -.00000994  00000-0 -44396-4 0  9993,2 53700  53.2177 177.6061 0001293  85.2110 274.9030 15.08832034 26841,6917.905,95.438,540.664,538.875,0.0
53700.0,STARLINK-4725,PAYLOAD,2023-02-26 01:16:38,15.08839686,0.0001371,53.2185,176.1208,84.5079,275.6069,6.759e-06,-1.8e-06,0.0,0 STARLINK-4725,1 53700U 22107A   23057.05322511 -.00000180  00000-0  67590-5 0  9995,2 53700  53.2185 176.1208 0001371  84.5079 275.6069 15.08839686 26895,6917.881,95.438,540.695,538.798,0.0
53700.0,STARLINK-4725,PAYLOAD,2023-02-26 10:48:56,15.08857398,0.0001153,53.2172,174.3365,77.9477,282.1645,-1.314e-05,-4.97e-06,0.0,0 STARLINK-4725,1 53700U 22107A   23057.45065355 -.00000497  00000-0 -13140-4 0  9992,2 53700  53.2172 174.3365 0001153  77.9477 282.1645 15.08857398 26951,6917.827,95.436,540.49,538.895,0.0
53700.0,STARLINK-4725,PAYLOAD,2023-02-26 17:10:27,15.08871907,9.39e-05,53.2174,173.1462,85.1137,274.9962,9.5243e-05,1.23e-05,0.0,0 STARLINK-4725,1 53700U 22107A   23057.71559654  .00001230  00000-0  95243-4 0  9999,2 53700  53.2174 173.1462 0000939  85.1137 274.9962 15.08871907 26990,6917.783,95.436,540.297,538.998,0.0
53700.0,STARLINK-4725,PAYLOAD,2023-02-27 01:07:24,15.08847367,0.000108,53.218,171.6602,87.9474,272.1641,-0.00011222,-2.074e-05,0.0,0 STARLINK-4725,1 53700U 22107A   23058.04681619 -.00002074  00000-0 -11222-3 0  9996,2 53700  53.2180 171.6602 0001080  87.9474 272.1641 15.08847367 27042,6917.858,95.437,540.47,538.976,0.0
53700.0,STARLINK-4725,PAYLOAD,2023-02-27 10:39:44,15.08831049,0.0001312,53.2183,169.8768,79.9256,280.1884,4.7557e-05,4.69e-06,0.0,0 STARLINK-4725,1 53700U 22107A   23058.44426307  .00000469  00000-0  47557-4 0  9996,2 53700  53.2183 169.8768 0001312  79.9256 280.1884 15.08831049 27109,6917.908,95.438,540.68,538.865,0.0
53700.0,STARLINK-4725,PAYLOAD,2023-02-27 17:01:14,15.08859663,0.0001196,53.2178,168.6855,106.2074,253.905,0.00015762,2.223e-05,0.0,0 STARLINK-4725,1 53700U 22107A   23058.70919923  .00002223  00000-0  15762-3 0  9998,2 53700  53.2178 168.6855 0001196 106.2074 253.9050 15.08859663 27148,6917.82,95.436,540.513,538.858,0.0
53700.0,STARLINK-4725,PAYLOAD,2023-02-27 18:36:37,15.08868535,0.0001319,53.2175,168.392,64.0446,296.0682,0.00024675,3.644e-05,0.0,0 STARLINK-4725,1 53700U 22107A   23058.77543130  .00003644  00000-0  24675-3 0  9999,2 53700  53.2175 168.3920 0001319  64.0446 296.0682 15.08868535 27907,6917.793,95.436,540.571,538.746,0.0
53700.0,STARLINK-4725,PAYLOAD,2023-02-28 13:41:18,15.08836956,0.0001241,53.2185,164.8213,116.7555,243.3564,-0.00027351,-4.638e-05,0.0,0 STARLINK-4725,1 53700U 22107A   23059.57035296 -.00004638  00000-0 -27351-3 0  9997,2 53700  53.2185 164.8213 0001241 116.7555 243.3564 15.08836956 28024,6917.89,95.438,540.613,538.896,0.0
53700.0,STARLINK-4725,PAYLOAD,2023-02-28 16:52:04,15.08843483,9.11e-05,53.2171,164.2259,104.234,255.8753,-0.00020744,-3.588e-05,0.0,0 STARLINK-4725,1 53700U 22107A   23059.70282684 -.00003588  00000-0 -20744-3 0  9999,2 53700  53.2171 164.2259 0000911 104.2340 255.8753 15.08843483 28043,6917.87,95.437,540.365,539.105,0.0
53700.0,STARLINK-4725,PAYLOAD,2023-03-01 10:21:20,15.08817324,0.0001336,53.2179,160.956,123.6509,236.4611,-8.0374e-05,-1.566e-05,0.0,0 STARLINK-4725,1 53700U 22107A   23060.43148437 -.00001566  00000-0 -80374-4 0  9998,2 53700  53.2179 160.9560 0001336 123.6509 236.4611 15.08817324 27405,6917.95,95.439,540.739,538.89,0.0
53700.0,STARLINK-4725,PAYLOAD,2023-03-01 16:42:51,15.08840801,0.0001201,53.2174,159.7646,133.3024,226.8068,-0.00011522,-2.121e-05,0.0,0 STARLINK-4725,1 53700U 22107A   23060.69643322 -.00002121  00000-0 -11522-3 0  9995,2 53700  53.2174 159.7646 0001201 133.3024 226.8068 15.08840801 27441,6917.878,95.438,540.574,538.912,0.0
53700.0,STARLINK-4725,PAYLOAD,2023-03-02 14:58:14,15.08848982,0.0001264,53.2173,155.6028,136.0093,224.1,0.00020725,3.013e-05,0.0,0 STARLINK-4725,1 53700U 22107A   23061.62378144  .00003013  00000-0  20725-3 0  9990,2 53700  53.2173 155.6028 0001264 136.0093 224.1000 15.08848982 28338,6917.853,95.437,540.592,538.844,0.0
53700.0,STARLINK-4725,PAYLOAD,2023-03-03 08:27:29,15.08844346,0.0001556,53.2186,152.3327,134.4256,225.6864,0.00012331,1.675e-05,0.0,0 STARLINK-4725,1 53700U 22107A   23062.35242738  .00001675  00000-0  12331-3 0  9996,2 53700  53.2186 152.3327 0001556 134.4256 225.6864 15.08844346 27697,6917.867,95.437,540.809,538.656,0.0
53700.0,STARLINK-4725,PAYLOAD,2023-03-03 11:38:15,15.0884867,0.0001359,53.218,151.7389,119.6547,240.458,0.00017646,2.522e-05,0.0,0 STARLINK-4725,1 53700U 22107A   23062.48490289  .00002522  00000-0  17646-3 0  9992,2 53700  53.2180 151.7389 0001359 119.6547 240.4580 15.08848670 28461,6917.854,95.437,540.659,538.779,0.0
53700.0,STARLINK-4725,PAYLOAD,2023-03-03 14:49:00,15.08868753,9.48e-05,53.2171,151.1416,142.1079,217.998,0.00026415,3.922e-05,0.0,0 STARLINK-4725,1 53700U 22107A   23062.61736491  .00003922  00000-0  26415-3 0  9994,2 53700  53.2171 151.1416 0000948 142.1079 217.9980 15.08868753 28489,6917.793,95.436,540.313,539.002,0.0
53700.0,STARLINK-4725,PAYLOAD,2023-03-04 08:18:17,15.08840904,0.0001562,53.2187,147.8746,102.0743,258.0424,-8.3585e-05,-1.618e-05,0.0,0 STARLINK-4725,1 53700U 22107A   23063.34603325 -.00001618  00000-0 -83585-4 0  9998,2 53700  53.2187 147.8746 0001562 102.0743 258.0424 15.08840904 27846,6917.878,95.437,540.823,538.662,0.0
53700.0,STARLINK-4725,PAYLOAD,2023-03-04 11:29:03,15.08841964,0.0001565,53.2184,147.2797,104.5887,255.5279,-0.00011604,-2.134e-05,0.0,0 STARLINK-4725,1 53700U 22107A   23063.47851380 -.00002134  00000-0 -11604-3 0  9994,2 53700  53.2184 147.2797 0001565 104.5887 255.5279 15.08841964 28615,6917.874,95.437,540.822,538.657,0.0
53700.0,STARLINK-4725,PAYLOAD,2023-03-04 14:39:48,15.08861347,0.0001442,53.2183,146.6831,121.3071,238.8062,-2.2735e-06,-3.24e-06,0.0,0 STARLINK-4725,1 53700U 22107A   23063.61097534 -.00000324  00000-0 -22735-5 0  9991,2 53700  53.2183 146.6831 0001442 121.3071 238.8062 15.08861347 27881,6917.815,95.436,540.678,538.683,0.0
53700.0,STARLINK-4725,PAYLOAD,2023-03-04 22:36:46,15.08835408,0.0001726,53.2176,145.1977,79.6842,280.4345,-0.00018914,-3.297e-05,0.0,0 STARLINK-4725,1 53700U 22107A   23063.94219981 -.00003297  00000-0 -18914-3 0  9993,2 53700  53.2176 145.1977 0001726  79.6842 280.4345 15.08835408 27936,6917.894,95.438,540.953,538.565,0.0
53700.0,STARLINK-4725,PAYLOAD,2023-03-05 04:58:18,15.08842662,0.000139,53.2176,144.0065,90.1302,269.985,-0.0003021,-5.093e-05,0.0,0 STARLINK-4725,1 53700U 22107A   23064.20716084 -.00005093  00000-0 -30210-3 0  9998,2 53700  53.2176 144.0065 0001390  90.1302 269.9850 15.08842662 28729,6917.872,95.437,540.699,538.776,0.0
53700.0,STARLINK-4725,PAYLOAD,2023-03-05 22:27:31,15.08854497,0.000133,53.2183,140.7339,95.1586,264.9558,-0.00015944,-2.826e-05,0.0,0 STARLINK-4725,1 53700U 22107A   23064.93578332 -.00002826  00000-0 -15944-3 0  9998,2 53700  53.2183 140.7339 0001330  95.1586 264.9558 15.08854497 28085,6917.836,95.437,540.621,538.781,0.0
53700.0,STARLINK-4725,PAYLOAD,2023-03-06 14:21:20,15.08872696,0.000133,53.2176,137.7603,117.1973,242.9155,0.00014698,2.054e-05,0.0,0 STARLINK-4725,1 53700U 22107A   23065.59815873  .00002054  00000-0  14698-3 0  9991,2 53700  53.2176 137.7603 0001330 117.1973 242.9155 15.08872696 28183,6917.78,95.435,540.566,538.725,0.0
